ORBCOMM FM06            
1 25118U 97084G   26171.33789034  .00000856  00000+0  26971-3 0  9995
2 25118  45.0147  37.5444 0000857 343.3576 186.5581 14.47568941494840
ORBCOMM FM04            
1 25159U 98007C   26171.25108675  .00000599  00000+0  25068-3 0  9993
2 25159 107.9626 175.7253 0041441 319.5001  40.3058 14.35745966477039
ORBCOMM FM19            
1 25415U 98046C   26171.47310161  .00000477  00000+0  19693-3 0  9992
2 25415  44.9926 227.9426 0004546 294.8894  79.0113 14.39500175457257
ORBCOMM FM20            
1 25416U 98046D   26171.20858727  .00000332  00000+0  15516-3 0  9999
2 25416  44.9929 237.1557 0002400 260.0825  99.9753 14.38069327457221
ORBCOMM FM27            
1 25481U 98053G   26171.45018669  .00000628  00000+0  24657-3 0  9993
2 25481  45.0041 319.8536 0001323 205.5283 154.5500 14.39146142450706
ORBCOMM FM32            
1 25982U 99065C   26171.00154369  .00000315  00000+0  15234-3 0  9996
2 25982  45.0134 159.9179 0004329  50.9865 309.1368 14.37132393387494
ORBCOMM FM109           
1 40086U 14040A   26170.01595539  .00000301  00000+0  99899-4 0  9991
2 40086  47.0031  82.8397 0001935 251.0787 108.9889 14.58846512634617
ORBCOMM FM110           
1 41182U 15081D   26171.18577907  .00000452  00000+0  13179-3 0  9996
2 41182  47.0032 347.2650 0002477  94.2496 265.8673 14.58884051558060
ORBCOMM FM118           
1 41183U 15081E   26169.91880297  .00001935  00000+0  44524-3 0  9999
2 41183  47.0047 353.5866 0002527  37.2659 322.8402 14.58881067557988
ORBCOMM FM112           
1 41184U 15081F   26171.36150830  .00000353  00000+0  11089-3 0  9998
2 41184  46.9987 255.2369 0003896 230.7035 129.3505 14.58908028559415
ORBCOMM FM113           
1 41185U 15081G   26171.20126286  .00000204  00000+0  79455-4 0  9997
2 41185  47.0004 256.3723 0002404 235.0775 124.9885 14.58860795559372
ORBCOMM FM108           
1 41187U 15081J   26169.04056137  .00000258  00000+0  90814-4 0  9996
2 41187  47.0030 178.1625 0002987 224.9174 135.1471 14.58870752560204
ORBCOMM FM117           
1 41188U 15081K   26171.33461973  .00000118  00000+0  61235-4 0  9990
2 41188  46.9991 165.9489 0003577 236.9706 123.0836 14.58866426560586
ORBCOMM FM116           
1 41189U 15081L   26171.24654257  .00000372  00000+0  11477-3 0  9994
2 41189  47.0018 256.1563 0000513  99.1383 260.9561 14.58886945559382
